IRIDIUM 26              
1 24903U 97043A   25358.11630233  .00000322  00000+0  10147-3 0  9995
2 24903  86.3949  30.7804 0002253  98.0178 262.1275 14.37335693484023
IRIDIUM 22              
1 24907U 97043E   25358.13451382  .00000332  00000+0  10734-3 0  9990
2 24907  86.3953  34.4758 0002337  93.6285 266.5179 14.36129158484032
DUMMY MASS 1            
1 24925U 97048A   25358.10968872  .00000403  00000+0  41682-4 0  9995
2 24925  86.3334  47.4443 0006544 171.8796 188.2536 14.87192089533356
DUMMY MASS 2            
1 24926U 97048B   25358.17086441  .00000399  00000+0  41506-4 0  9995
2 24926  86.3333  49.0589 0006771 185.8432 174.2715 14.86942620533132
IRIDIUM 29              
1 24944U 97051A   25358.15799159  .00000349  00000+0  11176-3 0  9998
2 24944  86.3944  64.1491 0002244  90.5639 269.5815 14.36671110480545
IRIDIUM 33              
1 24946U 97051C   25358.14198669  .00000327  00000+0  10793-3 0  9998
2 24946  86.3858  63.4351 0008384 163.2863 196.8611 14.35044893479989
IRIDIUM 28              
1 24948U 97051E   25358.15106624  .00000372  00000+0  11764-3 0  9990
2 24948  86.3949  61.5590 0002311 108.3799 251.7651 14.37571391481133
IRIDIUM 36              
1 24967U 97056C   25358.01521220  .00000435  00000+0  13779-3 0  9992
2 24967  86.3963  93.2441 0002341  99.9297 260.2165 14.37793621479491
